[{"OBJECT_NAME":"MAROC-TUBSAT","OBJECT_ID":"2001-056D","EPOCH":"2026-03-09T22:30:04.167072","MEAN_MOTION":13.70257966,"ECCENTRICITY":0.00202743,"INCLINATION":99.801,"RA_OF_ASC_NODE":243.9412,"ARG_OF_PERICENTER":39.0163,"MEAN_ANOMALY":116.8621,"EPHEMERIS_TYPE":0,"CLASSIFICATION_TYPE":"U","NORAD_CAT_ID":27004,"ELEMENT_SET_NO":999,"REV_AT_EPOCH":21259,"BSTAR":2.5577729e-5,"MEAN_MOTION_DOT":-2.4e-7,"MEAN_MOTION_DDOT":0},{"OBJECT_NAME":"COSMOS 1577","OBJECT_ID":"1984-067A","EPOCH":"2026-03-09T22:41:07.501344","MEAN_MOTION":13.75670351,"ECCENTRICITY":0.00344164,"INCLINATION":82.9535,"RA_OF_ASC_NODE":279.7709,"ARG_OF_PERICENTER":274.0561,"MEAN_ANOMALY":198.2421,"EPHEMERIS_TYPE":0,"CLASSIFICATION_TYPE":"U","NORAD_CAT_ID":15077,"ELEMENT_SET_NO":999,"REV_AT_EPOCH":83983,"BSTAR":4.6782078e-5,"MEAN_MOTION_DOT":6.0e-7,"MEAN_MOTION_DDOT":0}]
